start=new Date('2021-12-16T00:00:00.000Z').valueOf();
sats=[{"MEAN_ELEMENT_THEORY":"SGP4","DECAY_DATE":null,"ECCENTRICITY":"0.00013210","MEAN_MOTION_DDOT":"0.0000000000000","ARG_OF_PERICENTER":"81.7059","SITE":"AFETR","SEMIMAJOR_AXIS":"6925.349","ELEMENT_SET_NO":"999","TLE_LINE2":"2 44947  53.0550  62.2868 0001321  81.7059 278.4079 15.06399762107268","OBJECT_ID":"2020-001AK","REV_AT_EPOCH":"10726","PERIAPSIS":"546.299","TIME_SYSTEM":"UTC","RA_OF_ASC_NODE":"62.2868","TLE_LINE1":"1 44947U 20001AK  21349.71216255 -.00000216  00000-0  44069-5 0  9997","MEAN_ANOMALY":"278.4079","MEAN_MOTION":"15.06399762","APOAPSIS":"548.129","RCS_SIZE":"LARGE","OBJECT_TYPE":"PAYLOAD","FILE":"3241542","COUNTRY_CODE":"US","BSTAR":"0.00000440690000","LAUNCH_DATE":"2020-01-07","EPOCH":"2021-12-15T17:05:30.844320","GP_ID":"191795838","CLASSIFICATION_TYPE":"U","EPHEMERIS_TYPE":"0","OBJECT_NAME":"STARLINK-1116","PERIOD":"95.592","NORAD_CAT_ID":"44947","MEAN_MOTION_DOT":"-0.00000216","INCLINATION":"53.0550","CENTER_NAME":"EARTH","REF_FRAME":"TEME"},{"MEAN_MOTION_DDOT":"0.0000000000000","MEAN_ELEMENT_THEORY":"SGP4","DECAY_DATE":null,"ECCENTRICITY":"0.00012130","ARG_OF_PERICENTER":"80.3614","SITE":"AFETR","SEMIMAJOR_AXIS":"6925.362","OBJECT_ID":"2020-001AM","TLE_LINE2":"2 44949  53.0563  62.7849 0001213  80.3614 279.7512 15.06395556107241","ELEMENT_SET_NO":"999","REV_AT_EPOCH":"10724","RA_OF_ASC_NODE":"62.7849","TIME_SYSTEM":"UTC","PERIAPSIS":"546.387","APOAPSIS":"548.067","TLE_LINE1":"1 44949U 20001AM  21349.60526973 -.00000723  00000-0 -29676-4 0  9998","MEAN_ANOMALY":"279.7512","MEAN_MOTION":"15.06395556","RCS_SIZE":"LARGE","OBJECT_TYPE":"PAYLOAD","LAUNCH_DATE":"2020-01-07","EPOCH":"2021-12-15T14:31:35.304672","COUNTRY_CODE":"US","FILE":"3241542","BSTAR":"-0.00002967600000","GP_ID":"191797089","EPHEMERIS_TYPE":"0","CLASSIFICATION_TYPE":"U","INCLINATION":"53.0563","OBJECT_NAME":"STARLINK-1122","PERIOD":"95.592","NORAD_CAT_ID":"44949","MEAN_MOTION_DOT":"-0.00000723","CENTER_NAME":"EARTH","REF_FRAME":"TEME"},{"EPHEMERIS_TYPE":"0","CLASSIFICATION_TYPE":"U","INCLINATION":"53.0547","MEAN_MOTION_DOT":"-0.00000460","PERIOD":"95.592","NORAD_CAT_ID":"44950","OBJECT_NAME":"STARLINK-1125","CENTER_NAME":"EARTH","REF_FRAME":"TEME","OBJECT_TYPE":"PAYLOAD","RCS_SIZE":"LARGE","EPOCH":"2021-12-15T14:52:48.963360","LAUNCH_DATE":"2020-01-07","COUNTRY_CODE":"US","FILE":"3241542","BSTAR":"-0.00001199900000","GP_ID":"191796840","OBJECT_ID":"2020-001AN","TLE_LINE2":"2 44950  53.0547  62.7108 0001307  84.0496 276.0642 15.06398663107242","ELEMENT_SET_NO":"999","REV_AT_EPOCH":"10724","TIME_SYSTEM":"UTC","RA_OF_ASC_NODE":"62.7108","PERIAPSIS":"546.313","APOAPSIS":"548.123","MEAN_MOTION":"15.06398663","TLE_LINE1":"1 44950U 20001AN  21349.62001115 -.00000460  00000-0 -11999-4 0  9995","MEAN_ANOMALY":"276.0642","MEAN_MOTION_DDOT":"0.0000000000000","ECCENTRICITY":"0.00013070","DECAY_DATE":null,"MEAN_ELEMENT_THEORY":"SGP4","ARG_OF_PERICENTER":"84.0496","SEMIMAJOR_AXIS":"6925.353","SITE":"AFETR"},{"ARG_OF_PERICENTER":"62.9799","MEAN_ELEMENT_THEORY":"SGP4","ECCENTRICITY":"0.00011530","DECAY_DATE":null,"MEAN_MOTION_DDOT":"0.0000000000000","SEMIMAJOR_AXIS":"6918.356","SITE":"AFETR","REV_AT_EPOCH":"10858","TLE_LINE2":"2 44951  53.0044  58.0885 0001153  62.9799 297.1308 15.08684435108583","ELEMENT_SET_NO":"999","OBJECT_ID":"2020-001AP","MEAN_ANOMALY":"297.1308","TLE_LINE1":"1 44951U 20001AP  21349.69205005  .00005071  00000-0  33785-3 0  9994","MEAN_MOTION":"15.08684435","APOAPSIS":"541.019","PERIAPSIS":"539.423","TIME_SYSTEM":"UTC","RA_OF_ASC_NODE":"58.0885","COUNTRY_CODE":"US","FILE":"3241542","BSTAR":"0.00033785000000","LAUNCH_DATE":"2020-01-07","EPOCH":"2021-12-15T16:36:33.124320","RCS_SIZE":"LARGE","OBJECT_TYPE":"PAYLOAD","GP_ID":"191796088","OBJECT_NAME":"STARLINK-1126","NORAD_CAT_ID":"44951","PERIOD":"95.447","MEAN_MOTION_DOT":"0.00005071","INCLINATION":"53.0044","CLASSIFICATION_TYPE":"U","EPHEMERIS_TYPE":"0","REF_FRAME":"TEME","CENTER_NAME":"EARTH"},{"ARG_OF_PERICENTER":"78.5891","MEAN_MOTION_DDOT":"0.0000000000000","MEAN_ELEMENT_THEORY":"SGP4","DECAY_DATE":null,"ECCENTRICITY":"0.00009710","SEMIMAJOR_AXIS":"6925.371","SITE":"AFETR","REV_AT_EPOCH":"10724","OBJECT_ID":"2020-001AQ","ELEMENT_SET_NO":"999","TLE_LINE2":"2 44952  53.0555  62.8559 0000971  78.5891 281.5207 15.06392714107246","APOAPSIS":"547.908","TLE_LINE1":"1 44952U 20001AQ  21349.58684383 -.00000592  00000-0 -20898-4 0  9990","MEAN_ANOMALY":"281.5207","MEAN_MOTION":"15.06392714","RA_OF_ASC_NODE":"62.8559","TIME_SYSTEM":"UTC","PERIAPSIS":"546.563","LAUNCH_DATE":"2020-01-07","EPOCH":"2021-12-15T14:05:03.306912","COUNTRY_CODE":"US","FILE":"3241011","BSTAR":"-0.00002089800000","RCS_SIZE":"LARGE","OBJECT_TYPE":"PAYLOAD","GP_ID":"191761756","INCLINATION":"53.0555","OBJECT_NAME":"STARLINK-1117","PERIOD":"95.593","MEAN_MOTION_DOT":"-0.00000592","NORAD_CAT_ID":"44952","EPHEMERIS_TYPE":"0","CLASSIFICATION_TYPE":"U","REF_FRAME":"TEME","CENTER_NAME":"EARTH"},{"OBJECT_NAME":"STARLINK-1124","NORAD_CAT_ID":"44953","PERIOD":"95.593","MEAN_MOTION_DOT":"-0.00000786","INCLINATION":"53.0498","CLASSIFICATION_TYPE":"U","EPHEMERIS_TYPE":"0","REF_FRAME":"TEME","CENTER_NAME":"EARTH","COUNTRY_CODE":"US","FILE":"3241011","BSTAR":"-0.00003390200000","LAUNCH_DATE":"2020-01-07","EPOCH":"2021-12-15T11:19:09.031584","RCS_SIZE":"LARGE","OBJECT_TYPE":"PAYLOAD","GP_ID":"191762006","REV_AT_EPOCH":"10851","ELEMENT_SET_NO":"999","TLE_LINE2":"2 44953  53.0498  63.3950 0001297  85.3092 274.8045 15.06391206108516","OBJECT_ID":"2020-001AR","MEAN_ANOMALY":"274.8045","TLE_LINE1":"1 44953U 20001AR  21349.47163231 -.00000786  00000-0 -33902-4 0  9998","MEAN_MOTION":"15.06391206","APOAPSIS":"548.139","PERIAPSIS":"546.342","RA_OF_ASC_NODE":"63.3950","TIME_SYSTEM":"UTC","ARG_OF_PERICENTER":"85.3092","MEAN_ELEMENT_THEORY":"SGP4","ECCENTRICITY":"0.00012970","DECAY_DATE":null,"MEAN_MOTION_DDOT":"0.0000000000000","SEMIMAJOR_AXIS":"6925.376","SITE":"AFETR"},{"ARG_OF_PERICENTER":"77.7894","MEAN_MOTION_DDOT":"0.0000000000000","ECCENTRICITY":"0.00014460","DECAY_DATE":null,"MEAN_ELEMENT_THEORY":"SGP4","SEMIMAJOR_AXIS":"6925.350","SITE":"AFETR","REV_AT_EPOCH":"10746","OBJECT_ID":"2020-001AS","TLE_LINE2":"2 44954  53.0554  43.0128 0001446  77.7894 282.3257 15.06399476107462","ELEMENT_SET_NO":"999","APOAPSIS":"548.217","MEAN_MOTION":"15.06399476","TLE_LINE1":"1 44954U 20001AS  21349.55182166  .00000885  00000-0  78288-4 0  9990","MEAN_ANOMALY":"282.3257","TIME_SYSTEM":"UTC","RA_OF_ASC_NODE":"43.0128","PERIAPSIS":"546.214","EPOCH":"2021-12-15T13:14:37.391424","LAUNCH_DATE":"2020-01-07","COUNTRY_CODE":"US","FILE":"3241304","BSTAR":"0.00007828800000","OBJECT_TYPE":"PAYLOAD","RCS_SIZE":"LARGE","GP_ID":"191771861","INCLINATION":"53.0554","PERIOD":"95.592","NORAD_CAT_ID":"44954","MEAN_MOTION_DOT":"0.00000885","OBJECT_NAME":"STARLINK-1066","EPHEMERIS_TYPE":"0","CLASSIFICATION_TYPE":"U","REF_FRAME":"TEME","CENTER_NAME":"EARTH"},{"GP_ID":"191763008","BSTAR":"0.00000225800000","FILE":"3241011","COUNTRY_CODE":"US","LAUNCH_DATE":"2020-01-07","EPOCH":"2021-12-15T13:25:14.398752","RCS_SIZE":"LARGE","OBJECT_TYPE":"PAYLOAD","REF_FRAME":"TEME","CENTER_NAME":"EARTH","OBJECT_NAME":"STARLINK-1069","PERIOD":"95.592","NORAD_CAT_ID":"44955","MEAN_MOTION_DOT":"-0.00000248","INCLINATION":"53.0563","CLASSIFICATION_TYPE":"U","EPHEMERIS_TYPE":"0","SEMIMAJOR_AXIS":"6925.355","SITE":"AFETR","ARG_OF_PERICENTER":"64.5559","MEAN_ELEMENT_THEORY":"SGP4","DECAY_DATE":null,"ECCENTRICITY":"0.00012780","MEAN_MOTION_DDOT":"0.0000000000000","TLE_LINE1":"1 44955U 20001AT  21349.55919443 -.00000248  00000-0  22580-5 0  9996","MEAN_ANOMALY":"295.5562","MEAN_MOTION":"15.06398057","APOAPSIS":"548.105","PERIAPSIS":"546.334","TIME_SYSTEM":"UTC","RA_OF_ASC_NODE":"42.9915","REV_AT_EPOCH":"10746","TLE_LINE2":"2 44955  53.0563  42.9915 0001278  64.5559 295.5562 15.06398057107469","ELEMENT_SET_NO":"999","OBJECT_ID":"2020-001AT"},{"REV_AT_EPOCH":"10752","OBJECT_ID":"2020-001AU","ELEMENT_SET_NO":"999","TLE_LINE2":"2 44956  53.0558  43.0031 0001169  68.2275 291.8838 15.06401357107520","APOAPSIS":"548.019","MEAN_MOTION":"15.06401357","TLE_LINE1":"1 44956U 20001AU  21349.55550731 -.00000351  00000-0 -46607-5 0  9990","MEAN_ANOMALY":"291.8838","TIME_SYSTEM":"UTC","RA_OF_ASC_NODE":"43.0031","PERIAPSIS":"546.400","ARG_OF_PERICENTER":"68.2275","MEAN_MOTION_DDOT":"0.0000000000000","ECCENTRICITY":"0.00011690","DECAY_DATE":null,"MEAN_ELEMENT_THEORY":"SGP4","SEMIMAJOR_AXIS":"6925.344","SITE":"AFETR","INCLINATION":"53.0558","MEAN_MOTION_DOT":"-0.00000351","PERIOD":"95.592","NORAD_CAT_ID":"44956","OBJECT_NAME":"STARLINK-1070","EPHEMERIS_TYPE":"0","CLASSIFICATION_TYPE":"U","REF_FRAME":"TEME","CENTER_NAME":"EARTH","EPOCH":"2021-12-15T13:19:55.831584","LAUNCH_DATE":"2020-01-07","FILE":"3241502","BSTAR":"-0.00000466070000","COUNTRY_CODE":"US","OBJECT_TYPE":"PAYLOAD","RCS_SIZE":"LARGE","GP_ID":"191775837"},{"REF_FRAME":"TEME","CENTER_NAME":"EARTH","PERIOD":"95.592","MEAN_MOTION_DOT":"0.00000582","NORAD_CAT_ID":"44957","OBJECT_NAME":"STARLINK-1074","INCLINATION":"53.0564","CLASSIFICATION_TYPE":"U","EPHEMERIS_TYPE":"0","GP_ID":"191761506","COUNTRY_CODE":"US","FILE":"3241011","BSTAR":"0.00005795800000","EPOCH":"2021-12-15T10:46:00.521760","LAUNCH_DATE":"2020-01-07","OBJECT_TYPE":"PAYLOAD","RCS_SIZE":"LARGE","MEAN_MOTION":"15.06394701","MEAN_ANOMALY":"286.7905","TLE_LINE1":"1 44957U 20001AV  21349.44861715  .00000582  00000-0  57958-4 0  9990","APOAPSIS":"548.188","PERIAPSIS":"546.271","RA_OF_ASC_NODE":"43.4849","TIME_SYSTEM":"UTC","REV_AT_EPOCH":"10750","ELEMENT_SET_NO":"999","TLE_LINE2":"2 44957  53.0564  43.4849 0001384  73.3236 286.7905 15.06394701107502","OBJECT_ID":"2020-001AV","SEMIMAJOR_AXIS":"6925.365","SITE":"AFETR","ARG_OF_PERICENTER":"73.3236","DECAY_DATE":null,"ECCENTRICITY":"0.00013840","MEAN_ELEMENT_THEORY":"SGP4","MEAN_MOTION_DDOT":"0.0000000000000"}];
